
    {
      "objectName": "ONEWEB-0339",
      "objectId": "2021-083V",
      "noradId": 49205,
      "epochUtc": "2026-02-26T17:50:46.307328",
      "meanMotionRevPerDay": 13.13468984,
      "eccentricity": 0.00018069,
      "inclinationDeg": 87.904,
      "raanDeg": 342.1917,
      "argPerigeeDeg": 87.7061,
      "meanAnomalyDeg": 272.4275,
      "bstar": -0.00065480006,
      "meanMotionDot": -0.00000226,
      "meanMotionDdot": 0,
      "elementSetNo": 999,
      "revAtEpoch": 21639
    },
    {
      "objectName": "ONEWEB-0343",
      "objectId": "2021-083Z",
      "noradId": 49209,
      "epochUtc": "2026-02-27T04:53:40.172352",
      "meanMotionRevPerDay": 13.18685767,
      "eccentricity": 0.00023325,
      "inclinationDeg": 87.9248,
      "raanDeg": 357.2943,
      "argPerigeeDeg": 91.2784,
      "meanAnomalyDeg": 268.8616,
      "bstar": -0.000093297083,
      "meanMotionDot": -2.4e-7,
      "meanMotionDdot": 0,
      "elementSetNo": 999,
      "revAtEpoch": 21554
    },
    {
      "objectName": "ONEWEB-0348",
      "objectId": "2021-083AD",
      "noradId": 49213,
      "epochUtc": "2026-02-27T04:35:04.220448",
      "meanMotionRevPerDay": 13.20771839,
      "eccentricity": 0.00019544,
      "inclinationDeg": 87.9186,
      "raanDeg": 296.4006,
      "argPerigeeDeg": 68.2997,
      "meanAnomalyDeg": 291.8344,
      "bstar": 0.000028456137,
      "meanMotionDot": 2.5e-7,
      "meanMotionDdot": 0,
      "elementSetNo": 999,
      "revAtEpoch": 22229
    },
    {
      "objectName": "ONEWEB-0352",
      "objectId": "2021-083AG",
      "noradId": 49216,
      "epochUtc": "2026-02-27T06:04:31.559520",
      "meanMotionRevPerDay": 13.13468985,
      "eccentricity": 0.00019241,
      "inclinationDeg": 87.9035,
      "raanDeg": 342.0979,
      "argPerigeeDeg": 89.3107,
      "meanAnomalyDeg": 270.8242,
      "bstar": 0.00010892966,
      "meanMotionDot": 5.3e-7,
      "meanMotionDdot": 0,
      "elementSetNo": 999,
      "revAtEpoch": 21659
    },
    {
      "objectName": "ONEWEB-0332",
      "objectId": "2021-090A",
      "noradId": 49279,
      "epochUtc": "2026-02-27T05:28:56.250912",
      "meanMotionRevPerDay": 13.14501821,
      "eccentricity": 0.00015379,
      "inclinationDeg": 87.8992,
      "raanDeg": 311.6451,
      "argPerigeeDeg": 86.0901,
      "meanAnomalyDeg": 274.0405,
      "bstar": 0.00061846022,
      "meanMotionDot": 0.00000242,
      "meanMotionDdot": 0,
      "elementSetNo": 999,
      "revAtEpoch": 21313
    },
    {
      "objectName": "ONEWEB-0353",
      "objectId": "2021-090D",
      "noradId": 49282,
      "epochUtc": "2026-02-27T05:17:31.202592",
      "meanMotionRevPerDay": 13.1450236,
      "eccentricity": 0.00014621,
      "inclinationDeg": 87.9003,
      "raanDeg": 311.6402,
      "argPerigeeDeg": 85.9259,
      "meanAnomalyDeg": 274.2038,
      "bstar": 0.00071237985,
      "meanMotionDot": 0.00000277,
      "meanMotionDdot": 0,
      "elementSetNo": 999,
      "revAtEpoch": 21313
    },
    {
      "objectName": "ONEWEB-0360",
      "objectId": "2021-090H",
      "noradId": 49286,
      "epochUtc": "2026-02-27T04:03:14.401152",
      "meanMotionRevPerDay": 13.20772631,
      "eccentricity": 0.0001769,
      "inclinationDeg": 87.9177,
      "raanDeg": 296.4078,
      "argPerigeeDeg": 87.1973,
      "meanAnomalyDeg": 272.9363,
      "bstar": 0.00030056831,
      "meanMotionDot": 0.00000135,
      "meanMotionDdot": 0,
      "elementSetNo": 999,
      "revAtEpoch": 21532
    },
    {
      "objectName": "ONEWEB-0364",
      "objectId": "2021-090M",
      "noradId": 49290,
      "epochUtc": "2026-02-27T04:53:15.208800",
      "meanMotionRevPerDay": 13.20771757,
      "eccentricity": 0.00015824,
      "inclinationDeg": 87.9175,
      "raanDeg": 296.4129,
      "argPerigeeDeg": 78.3877,
      "meanAnomalyDeg": 281.7434,
      "bstar": 0.000011578446,
      "meanMotionDot": 1.8e-7,
      "meanMotionDdot": 0,
      "elementSetNo": 999,
      "revAtEpoch": 21692
    },
    {
      "objectName": "ONEWEB-0367",
      "objectId": "2021-090Q",
      "noradId": 49293,
      "epochUtc": "2026-02-27T03:56:25.665216",
      "meanMotionRevPerDay": 13.20772461,
      "eccentricity": 0.00017581,
      "inclinationDeg": 87.9189,
      "raanDeg": 296.4047,
      "argPerigeeDeg": 87.8966,
      "meanAnomalyDeg": 272.2369,
      "bstar": 0.00024082475,
      "meanMotionDot": 0.00000111,
      "meanMotionDdot": 0,
      "elementSetNo": 999,
      "revAtEpoch": 21530
    },
    {
      "objectName": "ONEWEB-0371",
      "objectId": "2021-090U",
      "noradId": 49297,
      "epochUtc": "2026-02-27T06:07:56.324928",
      "meanMotionRevPerDay": 13.19725109,
      "eccentricity": 0.00018646,
      "inclinationDeg": 87.9247,
      "raanDeg": 326.8612,
      "argPerigeeDeg": 80.9108,
      "meanAnomalyDeg": 279.2236,
      "bstar": 0.000074817012,
      "meanMotionDot": 4.3e-7,
      "meanMotionDdot": 0,
      "elementSetNo": 999,
      "revAtEpoch": 21195
    },
    {
      "objectName": "ONEWEB-0374",
      "objectId": "2021-090X",
      "noradId": 49300,
      "epochUtc": "2026-02-27T04:54:40.530528",
      "meanMotionRevPerDay": 13.14501632,
      "eccentricity": 0.00013163,
      "inclinationDeg": 87.9003,
      "raanDeg": 311.6372,
      "argPerigeeDeg": 63.5982,
      "meanAnomalyDeg": 296.5283,
      "bstar": -0.000010815251,
      "meanMotionDot": 9e-8,
      "meanMotionDdot": 0,
      "elementSetNo": 999,
      "revAtEpoch": 21311
    },
    {
      "objectName": "ONEWEB-0378",
      "objectId": "2021-090AB",
      "noradId": 49304,
      "epochUtc": "2026-02-27T04:26:09.758688",
      "meanMotionRevPerDay": 13.20772576,
      "eccentricity": 0.00015581,
      "inclinationDeg": 87.9177,
      "raanDeg": 296.4085,
      "argPerigeeDeg": 77.6609,
      "meanAnomalyDeg": 282.4699,
      "bstar": -0.00016585743,
      "meanMotionDot": -5.4e-7,
      "meanMotionDdot": 0,
      "elementSetNo": 999,
      "revAtEpoch": 21526
    },
    {
      "objectName": "ONEWEB-0382",
      "objectId": "2021-090AF",
      "noradId": 49308,
      "epochUtc": "2026-02-27T03:31:25.861440",
      "meanMotionRevPerDay": 13.20772606,
      "eccentricity": 0.0001788,
      "inclinationDeg": 87.9186,
      "raanDeg": 296.4047,
      "argPerigeeDeg": 67.2124,
      "meanAnomalyDeg": 292.9198,
      "bstar": 0.00015958531,
      "meanMotionDot": 7.8e-7,
      "meanMotionDdot": 0,
      "elementSetNo": 999,
      "revAtEpoch": 21529
    },
    {
      "objectName": "ONEWEB-0385",
      "objectId": "2021-090AJ",
      "noradId": 49311,
      "epochUtc": "2026-02-27T05:09:10.227744",
      "meanMotionRevPerDay": 13.20771075,
      "eccentricity": 0.0001521,
      "inclinationDeg": 87.9196,
      "raanDeg": 296.3943,
      "argPerigeeDeg": 75.0716,
      "meanAnomalyDeg": 285.0586,
      "bstar": 0.00018649313,
      "meanMotionDot": 8.9e-7,
      "meanMotionDdot": 0,
      "elementSetNo": 999,
      "revAtEpoch": 21528
    }