ONEWEB-0339             
1 49205U 21083V   26057.74359152 -.00000226  00000+0 -65480-3 0  9997
2 49205  87.9040 342.1917 0001806  87.7061 272.4275 13.13468984216398
ONEWEB-0343             
1 49209U 21083Z   26058.20393718 -.00000024  00000+0 -93297-4 0  9993
2 49209  87.9248 357.2943 0002332  91.2784 268.8616 13.18685767215544
ONEWEB-0348             
1 49213U 21083AD  26058.19102107  .00000025  00000+0  28456-4 0  9990
2 49213  87.9186 296.4006 0001954  68.2997 291.8344 13.20771839222296
ONEWEB-0352             
1 49216U 21083AG  26058.25314305  .00000053  00000+0  10893-3 0  9991
2 49216  87.9035 342.0979 0001924  89.3107 270.8242 13.13468985216590
ONEWEB-0332             
1 49279U 21090A   26058.22842883  .00000242  00000+0  61846-3 0  9996
2 49279  87.8992 311.6451 0001537  86.0901 274.0405 13.14501821213135
ONEWEB-0353             
1 49282U 21090D   26058.22050003  .00000277  00000+0  71238-3 0  9999
2 49282  87.9003 311.6402 0001462  85.9259 274.2038 13.14502360213133
ONEWEB-0360             
1 49286U 21090H   26058.16891668  .00000135  00000+0  30057-3 0  9993
2 49286  87.9177 296.4078 0001769  87.1973 272.9363 13.20772631215321
ONEWEB-0364             
1 49290U 21090M   26058.20364825  .00000018  00000+0  11578-4 0  9991
2 49290  87.9175 296.4129 0001582  78.3877 281.7434 13.20771757216921
ONEWEB-0367             
1 49293U 21090Q   26058.16418594  .00000111  00000+0  24082-3 0  9999
2 49293  87.9189 296.4047 0001758  87.8966 272.2369 13.20772461215303
ONEWEB-0371             
1 49297U 21090U   26058.25551302  .00000043  00000+0  74817-4 0  9994
2 49297  87.9247 326.8612 0001864  80.9108 279.2236 13.19725109211950
ONEWEB-0374             
1 49300U 21090X   26058.20463577  .00000009  00000+0 -10815-4 0  9991
2 49300  87.9003 311.6372 0001316  63.5982 296.5283 13.14501632213111
ONEWEB-0378             
1 49304U 21090AB  26058.18483517 -.00000054  00000+0 -16586-3 0  9999
2 49304  87.9177 296.4085 0001558  77.6609 282.4699 13.20772576215265
ONEWEB-0382             
1 49308U 21090AF  26058.14682710  .00000078  00000+0  15959-3 0  9992
2 49308  87.9186 296.4047 0001788  67.2124 292.9198 13.20772606215296
ONEWEB-0385             
1 49311U 21090AJ  26058.21470171  .00000089  00000+0  18649-3 0  9991
2 49311  87.9196 296.3943 0001521  75.0716 285.0586 13.20771075215286
